0 COSMOS 1619
1 15471U 85003C   13282.04107076  .00000043  00000-0  17346-3 0  6993
2 15471 082.6044 129.3819 0020191 180.6415 334.6787 12.66159171327813
0 COSMOS 1619
1 15471U 85003C   13287.02193373  .00000045  00000-0  18350-3 0  7013
2 15471 082.6036 126.1928 0020394 169.4287 358.1554 12.66159583328447
0 COSMOS 1619
1 15471U 85003C   13289.52810017  .00000009  00000-0 -96072-5 0  7022
2 15471 082.6035 124.5880 0020483 163.7641 261.6406 12.66159943328764
0 COSMOS 1619
1 15471U 85003C   13292.06904557  .00000004  00000-0 -35014-4 0  7032
2 15471 082.6036 122.9608 0020579 158.0936 323.5846 12.66159932329085
0 COSMOS 1619
1 15471U 85003C   13294.51216144  .00000030  00000-0  10365-3 0  7042
2 15471 082.6037 121.3963 0020674 152.7470 299.5049 12.66159804329392
